NORAD_CAT_ID,OBJECT_NAME,OBJECT_TYPE,EPOCH,MEAN_MOTION,ECCENTRICITY,INCLINATION,RA_OF_ASC_NODE,ARG_OF_PERICENTER,MEAN_ANOMALY,BSTAR,MEAN_MOTION_DOT,MEAN_MOTION_DDOT,TLE_LINE0,TLE_LINE1,TLE_LINE2,SEMIMAJOR_AXIS,PERIOD,APOGEE,PERIGEE,DECAYED
53576.0,STARLINK-4581,PAYLOAD,2022-10-23 22:00:00,15.62671337,0.0001175,53.2171,192.5629,79.0741,44.3626,-0.0137259999999999,-0.01133755,0.0,0 STARLINK-4581,1 53576U 22101BB  22296.91667824 -.01133755  00000-0 -13726-1 0  9993,2 53576  53.2171 192.5629 0001175  79.0741  44.3626 15.62671337 10279,6758.081,92.15,380.74,379.152,0.0
53576.0,STARLINK-4581,PAYLOAD,2022-10-24 14:00:01,15.61043041,0.0001123,53.2173,189.317,78.6683,195.3516,-0.014601,-0.01131781,0.0,0 STARLINK-4581,1 53576U 22101BB  22297.58334491 -.01131781  00000-0 -14601-1 0  9998,2 53576  53.2173 189.3170 0001123  78.6683 195.3516 15.61043041 10379,6762.78,92.246,385.404,383.885,0.0
53576.0,STARLINK-4581,PAYLOAD,2022-10-24 22:00:00,15.60234928,0.000102,53.2169,187.7,86.39399999999998,261.4461,-0.01518,-0.01139547,0.0,0 STARLINK-4581,1 53576U 22101BB  22297.91667824 -.01139547  00000-0 -15180-1 0  9995,2 53576  53.2169 187.7000 0001020  86.3940 261.4461 15.60234928  1308,6765.115,92.294,387.67,386.29,0.0
53576.0,STARLINK-4581,PAYLOAD,2022-10-25 06:00:00,15.59422428,0.0001088999999999,53.2166,186.0836,62.7119,357.9734,-0.015675,-0.01140415,0.0,0 STARLINK-4581,1 53576U 22101BB  22298.25001157 -.01140415  00000-0 -15675-1 0  9999,2 53576  53.2166 186.0836 0001089  62.7119 357.9734 15.59422428 10480,6767.465,92.342,390.067,388.593,0.0
53576.0,STARLINK-4581,PAYLOAD,2022-10-25 14:00:01,15.58603325,0.0001222,53.2173,184.4659,69.971,62.587,-0.016073,-0.01134034,0.0,0 STARLINK-4581,1 53576U 22101BB  22298.58334491 -.01134034  00000-0 -16073-1 0  9998,2 53576  53.2173 184.4659 0001222  69.9710  62.5870 15.58603325  1305,6769.835,92.39,392.528,390.87300000000016,0.0
53576.0,STARLINK-4581,PAYLOAD,2022-10-25 22:00:01,15.5779714,0.0001272,53.2171,182.855,87.2171,116.2911,-0.016719,-0.01143092,0.0,0 STARLINK-4581,1 53576U 22101BB  22298.91668981 -.01143092  00000-0 -16719-1 0  9990,2 53576  53.2171 182.8550 0001272  87.2171 116.2911 15.57797140  1305,6772.170999999999,92.438,394.897,393.174,0.0
53576.0,STARLINK-4581,PAYLOAD,2022-10-26 06:00:00,15.56983523,0.0001154,53.2167,181.2441,65.4475,207.9085,-0.017252,-0.01143748,0.0,0 STARLINK-4581,1 53576U 22101BB  22299.25001157 -.01143748  00000-0 -17252-1 0  9995,2 53576  53.2167 181.2441 0001154  65.4475 207.9085 15.56983523 10633,6774.53,92.487,397.177,395.61300000000006,0.0
53576.0,STARLINK-4581,PAYLOAD,2022-10-26 14:00:01,15.56159499,0.0001072,53.2174,179.6325,68.8323,273.4644,-0.017541,-0.01129039,0.0,0 STARLINK-4581,1 53576U 22101BB  22299.58334491 -.01129039  00000-0 -17541-1 0  9999,2 53576  53.2174 179.6325 0001072  68.8323 273.4644 15.56159499  1301,6776.920999999999,92.536,399.513,398.06,0.0
53576.0,STARLINK-4581,PAYLOAD,2022-10-26 22:00:00,15.55348778,0.0001274999999999,53.2176,178.0272,53.2308,357.0204,-0.018147,-0.01132942,0.0,0 STARLINK-4581,1 53576U 22101BB  22299.91667824 -.01132942  00000-0 -18147-1 0  9995,2 53576  53.2176 178.0272 0001275  53.2308 357.0204 15.55348778  1303,6779.276,92.584,402.005,400.277,0.0
53576.0,STARLINK-4581,PAYLOAD,2022-10-27 06:00:00,15.54547226,0.0001293,53.2161,176.4229,62.3345,54.889,-0.018975,-0.01148336,0.0,0 STARLINK-4581,1 53576U 22101BB  22300.25001157 -.01148336  00000-0 -18975-1 0  9999,2 53576  53.2161 176.4229 0001293  62.3345  54.8890 15.54547226 10797,6781.606,92.631,404.348,402.594,0.0
53576.0,STARLINK-4581,PAYLOAD,2022-10-27 14:00:01,15.53727501,0.000128,53.2163,174.8181,67.71600000000001,115.5771,-0.019413,-0.01140735,0.0,0 STARLINK-4581,1 53576U 22101BB  22300.58335648 -.01140735  00000-0 -19413-1 0  9993,2 53576  53.2163 174.8181 0001280  67.7160 115.5771 15.53727501  1303,6783.991,92.68,406.725,404.98800000000006,0.0
53576.0,STARLINK-4581,PAYLOAD,2022-10-27 22:00:00,15.52905053,0.0001315999999999,53.2173,173.2175,68.4836,179.7722,-0.019769,-0.01128537,0.0,0 STARLINK-4581,1 53576U 22101BB  22300.91667824 -.01128537  00000-0 -19769-1 0  9994,2 53576  53.2173 173.2175 0001316  68.4836 179.7722 15.52905053  1305,6786.386,92.729,409.144,407.358,0.0
53576.0,STARLINK-4581,PAYLOAD,2022-10-28 06:00:00,15.5210533,0.0001103,53.2163,171.6187,75.8831,236.4114,-0.02074,-0.01147872,0.0,0 STARLINK-4581,1 53576U 22101BB  22301.25001157 -.01147872  00000-0 -20740-1 0  9997,2 53576  53.2163 171.6187 0001103  75.8831 236.4114 15.52105330 10946,6788.717,92.777,411.331,409.833,0.0
53576.0,STARLINK-4581,PAYLOAD,2022-10-28 14:00:01,15.51279288,0.0001063,53.2168,170.0195,60.3926,315.0413,-0.021064,-0.01133095,0.0,0 STARLINK-4581,1 53576U 22101BB  22301.58335648 -.01133095  00000-0 -21064-1 0  9990,2 53576  53.2168 170.0195 0001063  60.3926 315.0413 15.51279288  1301,6791.127,92.827,413.714,412.27,0.0
53576.0,STARLINK-4581,PAYLOAD,2022-10-28 22:00:01,15.50341642,9.51e-05,53.217,168.4258,82.7596,354.7759,-0.010352,-0.00556945,0.0,0 STARLINK-4581,1 53576U 22101BB  22301.91668981 -.00556945  00000-0 -10352-1 0  9996,2 53576  53.2170 168.4258 0000951  82.7596 354.7759 15.50341642 11050,6793.865,92.883,416.376,415.084,0.0
53576.0,STARLINK-4581,PAYLOAD,2022-10-29 08:00:01,15.49887734,0.0001149999999999,53.2175,166.4323,87.7893,156.1304,-8.368700000000001e-05,-5.198e-05,0.0,0 STARLINK-4581,1 53576U 22101BB  22302.33334491 -.00005198  00000-0 -83687-4 0  9992,2 53576  53.2175 166.4323 0001150  87.7893 156.1304 15.49887734 11115,6795.191,92.91,417.838,416.275,0.0
53576.0,STARLINK-4581,PAYLOAD,2022-10-29 12:00:00,15.49885102,0.0001182,53.2174,165.635,90.4422,3.9362,5.451e-07,-4.2e-06,0.0,0 STARLINK-4581,1 53576U 22101BB  22302.50001157 -.00000420  00000-0  54510-6 0  9998,2 53576  53.2174 165.6350 0001182  90.4422   3.9362 15.49885102  1309,6795.199000000001,92.91,417.867,416.261,0.0
53576.0,STARLINK-4581,PAYLOAD,2022-10-29 22:00:01,15.49972515,0.0001171,53.2148,163.6487,72.9833,187.6781,-0.0038546999999999,-0.00214016,0.0,0 STARLINK-4581,1 53576U 22101BB  22302.91668981 -.00214016  00000-0 -38547-2 0  9994,2 53576  53.2148 163.6487 0001171  72.9833 187.6781 15.49972515  1308,6794.943,92.905,417.604,416.013,0.0
53576.0,STARLINK-4581,PAYLOAD,2022-10-30 00:00:00,15.49966066,0.0001176,53.2149,163.2502,69.6969,296.1391,-0.0050133999999999,-0.00275984,0.0,0 STARLINK-4581,1 53576U 22101BB  22303.00001157 -.00275984  00000-0 -50134-2 0  9998,2 53576  53.2149 163.2502 0001176  69.6969 296.1391 15.49966066 11220,6794.962,92.905,417.626,416.028,0.0
53576.0,STARLINK-4581,PAYLOAD,2022-10-30 14:00:01,15.49775027,0.0001099,53.2155,160.4586,74.222,308.2856,-0.011409,-0.00598386,0.0,0 STARLINK-4581,1 53576U 22101BB  22303.58334491 -.00598386  00000-0 -11409-1 0  9996,2 53576  53.2155 160.4586 0001099  74.2220 308.2856 15.49775027  1308,6795.521,92.917,418.132,416.639,0.0
53576.0,STARLINK-4581,PAYLOAD,2022-10-30 22:00:01,15.4931054,0.0001418,53.2178,158.8669,73.1016,10.0526,-0.018777,-0.00957238,0.0,0 STARLINK-4581,1 53576U 22101BB  22303.91668981 -.00957238  00000-0 -18777-1 0  9997,2 53576  53.2178 158.8669 0001418  73.1016  10.0526 15.49310540  1309,6796.879,92.945,419.708,417.78,0.0
53576.0,STARLINK-4581,PAYLOAD,2022-10-31 14:00:01,15.47821834,0.000137,53.2167,155.6855,66.1138,135.6827,-0.024118,-0.01163185,0.0,0 STARLINK-4581,1 53576U 22101BB  22304.58334491 -.01163185  00000-0 -24118-1 0  9994,2 53576  53.2167 155.6855 0001370  66.1138 135.6827 15.47821834  1302,6801.236,93.034,424.033,422.17,0.0
53576.0,STARLINK-4581,PAYLOAD,2022-10-31 22:00:01,15.46996568,0.00013,53.2171,154.1001,92.3579,167.4272,-0.0244729999999999,-0.0114809,0.0,0 STARLINK-4581,1 53576U 22101BB  22304.91668981 -.01148090  00000-0 -24473-1 0  9997,2 53576  53.2171 154.1001 0001300  92.3579 167.4272 15.46996568 11514,6803.655,93.084,426.404,424.635,0.0
53576.0,STARLINK-4581,PAYLOAD,2022-11-01 14:00:01,15.45371028,0.0001249,53.217,150.9298,57.4081,315.2175,-0.025931,-0.0114967,0.0,0 STARLINK-4581,1 53576U 22101BB  22305.58334491 -.01149670  00000-0 -25931-1 0  9992,2 53576  53.2170 150.9298 0001249  57.4081 315.2175 15.45371028  1305,6808.425,93.182,431.14,429.44,0.0
53576.0,STARLINK-4581,PAYLOAD,2022-11-01 22:00:00,15.44559143,0.0001171999999999,53.2174,149.3504,81.9116,345.6985,-0.026766,-0.01153642,0.0,0 STARLINK-4581,1 53576U 22101BB  22305.91667824 -.01153642  00000-0 -26766-1 0  9999,2 53576  53.2174 149.3504 0001172  81.9116 345.6985 15.44559143 11679,6810.811,93.23,433.474,431.878,0.0
53576.0,STARLINK-4581,PAYLOAD,2022-11-02 14:00:01,15.42924426,0.0001335,53.2177,146.1914,90.7134,83.9387,-0.02797,-0.01141389,0.0,0 STARLINK-4581,1 53576U 22101BB  22306.58334491 -.01141389  00000-0 -27970-1 0  9997,2 53576  53.2177 146.1914 0001335  90.7134  83.9387 15.42924426  1306,6815.621,93.329,438.395,436.576,0.0
53576.0,STARLINK-4581,PAYLOAD,2022-11-02 22:00:00,15.42109958,0.0001486,53.2177,144.6178,59.0477,167.6558,-0.028722,-0.01140395,0.0,0 STARLINK-4581,1 53576U 22101BB  22306.91667824 -.01140395  00000-0 -28722-1 0  9995,2 53576  53.2177 144.6178 0001486  59.0477 167.6558 15.42109958 11829,6818.02,93.379,440.898,438.872,0.0
53576.0,STARLINK-4581,PAYLOAD,2022-11-03 14:00:01,15.40494467,0.0001322,53.2171,141.4716,61.8451,266.0239,-0.030788,-0.0115645,0.0,0 STARLINK-4581,1 53576U 22101BB  22307.58334491 -.01156450  00000-0 -30788-1 0  9994,2 53576  53.2171 141.4716 0001322  61.8451 266.0239 15.40494467 11929,6822.786,93.476,445.55300000000005,443.749,0.0
53576.0,STARLINK-4581,PAYLOAD,2022-11-04 00:00:00,15.39461895,0.0001529,53.2174,139.5109,48.4973,70.6238,-0.031203,-0.01134604,0.0,0 STARLINK-4581,1 53576U 22101BB  22308.00001157 -.01134604  00000-0 -31203-1 0  9992,2 53576  53.2174 139.5109 0001529  48.4973  70.6238 15.39461895  1301,6825.8359999999975,93.539,448.745,446.658,0.0
